OBJECT_NAME,OBJECT_ID,EPOCH,MEAN_MOTION,ECCENTRICITY,INCLINATION,RA_OF_ASC_NODE,ARG_OF_PERICENTER,MEAN_ANOMALY,EPHEMERIS_TYPE,CLASSIFICATION_TYPE,NORAD_CAT_ID,ELEMENT_SET_NO,REV_AT_EPOCH,BSTAR,MEAN_MOTION_DOT,MEAN_MOTION_DDOT
ONEWEB-0619,2023-004W,2026-06-27T22:59:34.121184,13.17649751,.00017105,87.9141,3.7064,77.3085,282.8237,0,U,55160,999,16901,.17348069E-3,.8E-6,0
ONEWEB-0620,2023-004X,2026-06-27T19:40:26.901984,13.11416747,.00020264,87.8879,18.9599,93.4044,266.7316,0,U,55161,999,16722,-.12982727E-2,-.447E-5,0
ONEWEB-0621,2023-004Y,2026-06-27T20:19:31.986336,13.11417692,.00019183,87.8890,18.9442,80.9393,279.1952,0,U,55162,999,16720,.13015982E-2,.474E-5,0
ONEWEB-0622,2023-004Z,2026-06-27T20:26:51.819360,13.11416700,.00025503,87.8891,18.9458,82.0369,278.1049,0,U,55163,999,16719,.16534068E-2,.599E-5,0
ONEWEB-0623,2023-004AA,2026-06-27T22:52:15.407904,13.17650439,.0002273,87.9128,3.7363,71.0842,289.0536,0,U,55164,999,16900,.20651228E-3,.93E-6,0
ONEWEB-0624,2023-004AB,2026-06-27T22:34:07.196448,13.12927844,.00018529,87.8950,348.4443,88.6230,271.5112,0,U,55165,999,16948,.17786556E-3,.77E-6,0
ONEWEB-0625,2023-004AC,2026-06-27T22:37:41.867616,13.17650070,.00016857,87.9131,3.7342,89.9986,270.1339,0,U,55166,999,16899,.81122911E-4,.44E-6,0
ONEWEB-0626,2023-004AD,2026-06-27T18:44:23.477856,13.17657314,.00021342,87.9131,3.7659,99.9074,260.2299,0,U,55167,999,16897,.44776118E-4,.3E-6,0
ONEWEB-0627,2023-004AE,2026-06-27T22:06:05.385024,13.17652377,.00021652,87.9132,3.7380,77.3054,282.8319,0,U,55168,999,16899,.71632466E-3,.291E-5,0
ONEWEB-0628,2023-004AF,2026-06-27T22:13:05.614752,13.12441895,.00020446,87.8951,348.5171,73.4643,286.6710,0,U,55169,999,16944,.12923601E-2,.478E-5,0
ONEWEB-0629,2023-004AG,2026-06-27T21:30:52.165440,13.17648706,.00017186,87.9132,3.7393,80.8843,279.2483,0,U,55170,999,16899,-.15342813E-4,.7E-7,0
ONEWEB-0631,2023-004AH,2026-06-27T21:01:22.255392,13.18685795,.00023591,87.9177,333.3092,97.8317,262.3083,0,U,55171,999,17108,-.290105E-6,.13E-6,0
ONEWEB-0709,2023-004AJ,2026-06-27T19:25:48.062784,13.11417319,.00022148,87.8878,18.9638,110.4324,249.7042,0,U,55172,999,16726,-.1028113E-2,-.352E-5,0
ONEWEB-0710,2023-004AK,2026-06-27T18:12:48.883968,13.17650540,.00020018,87.9131,3.7620,86.7600,273.3761,0,U,55173,999,16897,.93410703E-4,.49E-6,0
ONEWEB-0711,2023-004AL,2026-06-27T20:34:11.235072,13.11415972,.00024,87.8882,18.9422,75.1298,285.0095,0,U,55174,999,16723,.15573315E-2,.565E-5,0
ONEWEB-0713,2023-004AM,2026-06-27T22:50:53.961216,13.11415892,.00021143,87.8881,18.9250,80.1199,280.0168,0,U,55175,999,16723,-.22807219E-3,-.68E-6,0
ONEWEB-0715,2023-004AN,2026-06-27T19:03:50.175936,13.11414267,.00023382,87.8880,18.9571,101.2085,258.9306,0,U,55176,999,16725,.13251481E-3,.6E-6,0
ONEWEB-0716,2023-004AP,2026-06-27T18:03:05.589792,13.17650765,.00016299,87.9132,3.7662,92.0342,268.0976,0,U,55177,999,16897,.2439113E-5,.14E-6,0
ONEWEB-0717,2023-004AQ,2026-06-27T21:17:30.614496,13.17649299,.00024001,87.9141,3.7280,84.1033,276.0372,0,U,55178,999,16904,.25976903E-4,.23E-6,0
ONEWEB-0719,2023-004AR,2026-06-27T21:32:05.501760,13.17649174,.00016733,87.9142,3.7063,87.2208,272.9115,0,U,55179,999,16899,-.28731764E-3,-.99E-6,0
ONEWEB-0530,2023-029A,2026-06-27T22:09:20.716416,13.20771126,.00021779,87.9186,272.3287,87.7584,272.3799,0,U,55796,999,16256,-.87237852E-4,-.22E-6,0
ONEWEB-0534,2023-029B,2026-06-27T18:14:10.958784,13.20772213,.00019122,87.9189,272.3621,101.7310,258.4038,0,U,55797,999,16254,-.4545301E-5,.11E-6,0
ONEWEB-0556,2023-029C,2026-06-27T16:34:45.774912,13.20772896,.00012523,87.9186,272.3748,85.0030,275.1246,0,U,55798,999,16253,-.46288309E-3,-.175E-5,0
ONEWEB-0562,2023-029D,2026-06-27T18:04:29.505792,13.20771222,.00019319,87.9188,272.3437,75.6266,284.5082,0,U,55799,999,16254,.44913112E-4,.31E-6,0
ONEWEB-0563,2023-029E,2026-06-27T19:46:18.214752,13.20772822,.00018375,87.9184,272.3599,105.7031,254.4306,0,U,55800,999,16254,.3088685E-3,.139E-5,0
ONEWEB-0564,2023-029F,2026-06-27T19:36:37.420128,13.20771277,.00019864,87.9186,272.3347,88.6868,271.4493,0,U,55801,999,16255,.14504469E-3,.72E-6,0
ONEWEB-0638,2023-029G,2026-06-27T19:42:32.368608,13.14504643,.00015209,87.8960,287.6315,87.0017,273.1287,0,U,55802,999,16079,.4154045E-3,.167E-5,0
ONEWEB-0639,2023-029H,2026-06-27T20:58:08.187168,13.19725455,.00018504,87.9177,302.8469,130.0626,230.0669,0,U,55803,999,16031,-.15778309E-3,-.5E-6,0
ONEWEB-0640,2023-029J,2026-06-27T19:56:14.050752,13.14503508,.0001231,87.8960,287.6206,98.0889,262.0381,0,U,55804,999,16081,.63988391E-3,.25E-5,0
ONEWEB-0641,2023-029K,2026-06-27T19:02:08.889216,13.19725789,.00019054,87.9187,302.8531,105.4872,254.6471,0,U,55805,999,16031,-.24146154E-3,-.84E-6,0
ONEWEB-0642,2023-029L,2026-06-27T20:44:30.889824,13.19725234,.00020703,87.9178,302.8500,124.2106,235.9224,0,U,55806,999,16031,-.55285273E-4,-.9E-7,0
ONEWEB-0643,2023-029M,2026-06-27T19:12:50.997600,13.14503983,.000227,87.8961,287.6139,117.8620,242.2740,0,U,55807,999,16078,-.57346796E-3,-.2E-5,0
ONEWEB-0644,2023-029N,2026-06-27T18:48:29.993472,13.19732066,.0001798,87.9176,302.8671,113.7654,246.3667,0,U,55808,999,16030,.22769641E-2,.925E-5,0
ONEWEB-0645,2023-029P,2026-06-27T21:09:31.669920,13.19725017,.00015645,87.9176,302.8446,110.7412,249.3889,0,U,55809,999,16031,-.10885768E-3,-.31E-6,0
ONEWEB-0646,2023-029Q,2026-06-27T21:34:33.159360,13.19725843,.00019535,87.9178,302.8415,108.7430,251.3914,0,U,55810,999,16030,-.21580822E-4,.4E-7,0
ONEWEB-0648,2023-029R,2026-06-27T20:16:47.510112,13.14501615,.000159,87.8972,287.5796,129.0184,231.1088,0,U,55811,999,16079,.20025276E-4,.2E-6,0
ONEWEB-0649,2023-029S,2026-06-27T20:21:45.352512,13.19725835,.00017438,87.9179,302.8491,106.2311,253.9013,0,U,55812,999,16033,-.11973845E-3,-.35E-6,0
ONEWEB-0650,2023-029T,2026-06-27T20:14:56.119776,13.19721199,.00018749,87.9178,302.8529,118.7959,241.3363,0,U,55813,999,16030,.40357531E-2,.1629E-4,0
ONEWEB-0652,2023-029U,2026-06-27T19:49:22.878336,13.14501296,.0002056,87.8968,287.5903,97.1129,263.0234,0,U,55814,999,16076,.53203461E-3,.21E-5,0
ONEWEB-0653,2023-029V,2026-06-27T19:26:31.899552,13.14504076,.00018942,87.8968,287.5916,98.9887,261.1457,0,U,55815,999,16079,-.19973637E-3,-.61E-6,0
ONEWEB-0654,2023-029W,2026-06-27T19:19:40.641600,13.14502797,.00020222,87.8967,287.5886,90.3206,269.8156,0,U,55816,999,16081,-.10028723E-2,-.359E-5,0
ONEWEB-0656,2023-029X,2026-06-27T19:26:53.515968,13.20773594,.00021424,87.9198,272.3131,88.5182,271.6197,0,U,55817,999,16255,.1421563E-3,.71E-6,0
ONEWEB-0657,2023-029Y,2026-06-27T20:08:07.531584,13.19725170,.00025931,87.9176,302.8524,95.9702,264.1726,0,U,55818,999,16031,.1179973E-3,.6E-6,0
ONEWEB-0658,2023-029Z,2026-06-27T20:01:18.102720,13.19725351,.0001964,87.9186,302.8299,112.5318,247.6022,0,U,55819,999,16032,.53527407E-4,.34E-6,0
ONEWEB-0660,2023-029AA,2026-06-27T20:37:19.306272,13.14503602,.00016242,87.8981,287.5720,104.9270,255.2040,0,U,55820,999,16080,-.41433157E-3,-.141E-5,0
ONEWEB-0661,2023-029AB,2026-06-27T19:37:58.452960,13.14503620,.00016227,87.8961,287.6233,99.9227,260.2086,0,U,55821,999,16078,.24166458E-3,.102E-5,0
ONEWEB-0662,2023-029AC,2026-06-27T20:28:12.520416,13.14502568,.00016406,87.8961,287.6224,104.6392,255.4920,0,U,55822,999,16083,-.38096421E-3,-.128E-5,0
ONEWEB-0663,2023-029AD,2026-06-27T18:25:13.442880,13.20869986,.00017728,87.9200,272.3932,111.7112,248.4211,0,U,55823,999,16254,-.92547771E-4,-.25E-6,0
ONEWEB-0664,2023-029AE,2026-06-27T19:07:31.785024,13.20770995,.00016023,87.9184,272.3673,90.5554,269.5763,0,U,55824,999,16254,-.21175484E-4,.4E-7,0
ONEWEB-0665,2023-029AF,2026-06-27T19:33:24.176160,13.14503963,.00016855,87.8959,287.6048,108.1668,251.9645,0,U,55825,999,16080,.31081562E-4,.24E-6,0
ONEWEB-0666,2023-029AG,2026-06-27T17:08:43.987200,13.20772440,.0002719,87.9184,272.3736,96.7455,263.3988,0,U,55826,999,16254,-.2264197E-3,-.79E-6,0
ONEWEB-0667,2023-029AH,2026-06-27T18:50:33.199872,13.20772664,.00018272,87.9201,272.3191,100.8264,259.3075,0,U,55827,999,16254,-.18292949E-3,-.61E-6,0
ONEWEB-0669,2023-029AJ,2026-06-27T18:43:16.384800,13.20772388,.00020189,87.9195,272.3307,83.3864,276.7499,0,U,55828,999,16254,-.17167663E-3,-.57E-6,0
ONEWEB-0670,2023-029AK,2026-06-27T20:51:01.411776,13.14500946,.00015631,87.8961,287.6112,95.7676,264.3632,0,U,55829,999,16083,-.69506169E-3,-.245E-5,0
ONEWEB-0671,2023-029AL,2026-06-27T19:54:27.870336,13.19725253,.00017549,87.9179,302.8558,101.9718,258.1612,0,U,55830,999,16030,.23723004E-4,.22E-6,0
ONEWEB-0672,2023-029AM,2026-06-27T18:35:59.277696,13.20772497,.00022197,87.9194,272.3251,95.7530,264.3857,0,U,55831,999,16254,-.69295061E-4,-.15E-6,0
ONEWEB-0673,2023-029AN,2026-06-27T21:10:38.401824,13.19723899,.00017674,87.9185,302.8374,100.7382,259.3950,0,U,55832,999,16031,-.57505946E-4,-.1E-6,0
ONEWEB-0674,2023-029AP,2026-06-27T20:05:20.887584,13.14504956,.00015626,87.8960,287.5944,94.1127,266.0181,0,U,55833,999,16081,.30205986E-3,.125E-5,0
ONEWEB-0675,2023-029AQ,2026-06-27T21:32:16.972224,13.19725078,.00022239,87.9177,302.8435,101.1422,258.9961,0,U,55834,999,16033,-.15339245E-3,-.48E-6,0
ONEWEB-0720,2023-029AR,2026-06-27T21:20:54.006144,13.19725583,.0001795,87.9177,302.8451,109.0478,251.0850,0,U,55835,999,16025,-.54762604E-4,-.9E-7,0
ONEWEB-0537,2023-043A,2026-06-27T20:01:12.415872,13.16595430,.00022646,87.9091,226.6571,94.2862,265.8527,0,U,56046,999,16036,-.11511882E-3,-.31E-6,0
ONEWEB-0538,2023-043B,2026-06-27T19:52:04.988064,13.16595836,.00022506,87.9090,226.6610,101.4060,258.7324,0,U,56047,999,16037,.12896089E-3,.62E-6,0
ONEWEB-0546,2023-043C,2026-06-27T21:23:16.793376,13.16594950,.0002648,87.9090,226.6484,87.7942,272.3492,0,U,56048,999,16037,.32630966E-3,.138E-5,0
ONEWEB-0547,2023-043D,2026-06-27T22:06:42.089472,13.21825493,.00020868,87.9251,241.8388,103.5603,256.5764,0,U,56049,999,15964,.14670791E-3,.74E-6,0
ONEWEB-0548,2023-043E,2026-06-27T20:09:10.530144,13.16593722,.00017921,87.9089,226.6545,84.5346,275.5989,0,U,56050,999,16036,-.77315921E-4,-.17E-6,0
